{
    "links": {
        "self": "http://www.neowsapp.com/rest/v1/neo/3841775?api_key=iIulBulltgU6a56xZRHN4H3l9WmuAYTsLGpBGhQ2"
    },
    "id": "3841775",
    "neo_reference_id": "3841775",
    "name": "(2019 JN3)",
    "designation": "2019 JN3",
    "nasa_jpl_url": "http://ssd.jpl.nasa.gov/sbdb.cgi?sstr=3841775",
    "absolute_magnitude_h": 27.1,
    "estimated_diameter": {
        "kilometers": {
            "estimated_diameter_min": 0.0101054342,
            "estimated_diameter_max": 0.0225964377
        },
        "meters": {
            "estimated_diameter_min": 10.1054341542,
            "estimated_diameter_max": 22.5964377109
        },
        "miles": {
            "estimated_diameter_min": 0.0062792237,
            "estimated_diameter_max": 0.0140407711
        },
        "feet": {
            "estimated_diameter_min": 33.1543125905,
            "estimated_diameter_max": 74.1352966996
        }
    },
    "is_potentially_hazardous_asteroid": false,
    "close_approach_data": [
        {
            "close_approach_date": "2019-05-10",
            "close_approach_date_full": "2019-May-10 00:22",
            "epoch_date_close_approach": 1557447720000,
            "relative_velocity": {
                "kilometers_per_second": "6.6829895606",
                "kilometers_per_hour": "24058.7624182257",
                "miles_per_hour": "14949.179348147"
            },
            "miss_distance": {
                "astronomical": "0.0165341432",
                "lunar": "6.4317817048",
                "kilometers": "2473472.604994984",
                "miles": "1536944.6076754192"
            },
            "orbiting_body": "Earth"
        }
    ],
    "orbital_data": {
        "orbit_id": "1",
        "orbit_determination_date": "2019-05-09 21:49:38",
        "first_observation_date": "2019-05-08",
        "last_observation_date": "2019-05-09",
        "data_arc_in_days": 1,
        "observations_used": 22,
        "orbit_uncertainty": "8",
        "minimum_orbit_intersection": ".0165225",
        "jupiter_tisserand_invariant": "4.754",
        "epoch_osculation": "2458612.5",
        "eccentricity": ".2639899115159106",
        "semi_major_axis": "1.377593813636355",
        "inclination": "10.07316807141377",
        "ascending_node_longitude": "50.51572060301565",
        "orbital_period": "590.58199508312",
        "perihelion_distance": "1.013922944669628",
        "perihelion_argument": "159.548294687912",
        "aphelion_distance": "1.741264682603082",
        "perihelion_time": "2458596.101829235776",
        "mean_anomaly": "9.995803333438548",
        "mean_motion": ".6095681937430766",
        "equinox": "J2000",
        "orbit_class": {
            "orbit_class_type": "APO",
            "orbit_class_description": "Near-Earth asteroid orbits which cross the Earth’s orbit similar to that of 1862 Apollo",
            "orbit_class_range": "a (semi-major axis) > 1.0 AU; q (perihelion) < 1.017 AU"
        }
    },
    "is_sentry_object": false
}